{
  "type": "FeatureCollection",
  "features": [
    {
      "type": "Feature",
      "properties": {
        "norad_id": 32376,
        "name": "COSMO-SKYMED 2",
        "group": "resource",
        "lat": -14.440118063430916,
        "lon": -6.140324631524204,
        "alt_km": 627.588920795235,
        "timestamp": "2025-12-20T16:47:35.947988+00:00",
        "meta_object_name": "COSMO-SKYMED 2",
        "meta_object_id": "2007-059A",
        "meta_epoch": "2025-12-20T12:40:41.784960",
        "meta_mean_motion": 14.82151401,
        "meta_eccentricity": 0.0001348,
        "meta_inclination": 97.8804,
        "meta_ra_of_asc_node": 175.7348,
        "meta_arg_of_pericenter": 83.0946,
        "meta_mean_anomaly": 277.042,
        "meta_ephemeris_type": 0,
        "meta_classification_type": "U",
        "meta_norad_cat_id": 32376,
        "meta_element_set_no": 999,
        "meta_rev_at_epoch": 97553,
        "meta_bstar": 5.2466e-05,
        "meta_mean_motion_dot": 3.66e-06,
        "meta_mean_motion_ddot": 0,
        "tle_line1": "1 32376U 07059A   25354.52826140  .00000366  00000+0  52466-4 0  9990",
        "tle_line2": "2 32376  97.8804 175.7348 0001348  83.0946 277.0420 14.82151401975538"
      },
      "geometry": {
        "type": "Point",
        "coordinates": [
          -6.140324631524204,
          -14.440118063430916
        ]
      }
    },
    {
      "type": "Feature",
      "properties": {
        "norad_id": 32382,
        "name": "RADARSAT-2",
        "group": "resource",
        "lat": 81.36601883973617,
        "lon": -97.01327170975175,
        "alt_km": 783.5122220888979,
        "timestamp": "2025-12-20T16:47:35.948022+00:00",
        "meta_object_name": "RADARSAT-2",
        "meta_object_id": "2007-061A",
        "meta_epoch": "2025-12-20T13:00:40.323168",
        "meta_mean_motion": 14.29984723,
        "meta_eccentricity": 0.0001137,
        "meta_inclination": 98.579,
        "meta_ra_of_asc_node": 359.019,
        "meta_arg_of_pericenter": 83.4539,
        "meta_mean_anomaly": 276.6772,
        "meta_ephemeris_type": 0,
        "meta_classification_type": "U",
        "meta_norad_cat_id": 32382,
        "meta_element_set_no": 999,
        "meta_rev_at_epoch": 94042,
        "meta_bstar": 0.00011035,
        "meta_mean_motion_dot": 2.41e-06,
        "meta_mean_motion_ddot": 0,
        "tle_line1": "1 32382U 07061A   25354.54213337  .00000241  00000+0  11035-3 0  9998",
        "tle_line2": "2 32382  98.5790 359.0190 0001137  83.4539 276.6772 14.29984723940424"
      },
      "geometry": {
        "type": "Point",
        "coordinates": [
          -97.01327170975175,
          81.36601883973617
        ]
      }
    },
    {
      "type": "Feature",
      "properties": {
        "norad_id": 32783,
        "name": "CARTOSAT-2A",
        "group": "resource",
        "lat": -61.23512224002026,
        "lon": -150.1701787182312,
        "alt_km": 640.7182855052333,
        "timestamp": "2025-12-20T16:47:35.948046+00:00",
        "meta_object_name": "CARTOSAT-2A",
        "meta_object_id": "2008-021A",
        "meta_epoch": "2025-12-20T12:27:11.875680",
        "meta_mean_motion": 14.78952409,
        "meta_eccentricity": 0.0011238,
        "meta_inclination": 97.7924,
        "meta_ra_of_asc_node": 44.0999,
        "meta_arg_of_pericenter": 339.4633,
        "meta_mean_anomaly": 20.6125,
        "meta_ephemeris_type": 0,
        "meta_classification_type": "U",
        "meta_norad_cat_id": 32783,
        "meta_element_set_no": 999,
        "meta_rev_at_epoch": 95239,
        "meta_bstar": 0.00017502,
        "meta_mean_motion_dot": 1.242e-05,
        "meta_mean_motion_ddot": 0,
        "tle_line1": "1 32783U 08021A   25354.51888745  .00001242  00000+0  17502-3 0  9995",
        "tle_line2": "2 32783  97.7924  44.0999 0011238 339.4633  20.6125 14.78952409952397"
      },
      "geometry": {
        "type": "Point",
        "coordinates": [
          -150.1701787182312,
          -61.23512224002026
        ]
      }
    },
    {
      "type": "Feature",
      "properties": {
        "norad_id": 33320,
        "name": "HUANJING 1A (HJ-1A)",
        "group": "resource",
        "lat": -54.45861221362046,
        "lon": 151.81607316478687,
        "alt_km": 635.122092104898,
        "timestamp": "2025-12-20T16:47:35.948062+00:00",
        "meta_object_name": "HUANJING 1A (HJ-1A)",
        "meta_object_id": "2008-041A",
        "meta_epoch": "2025-12-20T12:29:53.772000",
        "meta_mean_motion": 14.83416523,
        "meta_eccentricity": 0.001961,
        "meta_inclination": 97.6535,
        "meta_ra_of_asc_node": 342.4942,
        "meta_arg_of_pericenter": 9.7033,
        "meta_mean_anomaly": 350.4556,
        "meta_ephemeris_type": 0,
        "meta_classification_type": "U",
        "meta_norad_cat_id": 33320,
        "meta_element_set_no": 999,
        "meta_rev_at_epoch": 93191,
        "meta_bstar": 0.0001459,
        "meta_mean_motion_dot": 1.15e-05,
        "meta_mean_motion_ddot": 0,
        "tle_line1": "1 33320U 08041A   25354.52076125  .00001150  00000+0  14590-3 0  9999",
        "tle_line2": "2 33320  97.6535 342.4942 0019610   9.7033 350.4556 14.83416523931913"
      },
      "geometry": {
        "type": "Point",
        "coordinates": [
          151.81607316478687,
          -54.45861221362046
        ]
      }
    },
    {
      "type": "Feature",
      "properties": {
        "norad_id": 33321,
        "name": "HUANJING 1B (HJ-1B)",
        "group": "resource",
        "lat": 77.51959200303216,
        "lon": -50.98783308637996,
        "alt_km": 589.9095335545517,
        "timestamp": "2025-12-20T16:47:35.948074+00:00",
        "meta_object_name": "HUANJING 1B (HJ-1B)",
        "meta_object_id": "2008-041B",
        "meta_epoch": "2025-12-20T13:11:48.779232",
        "meta_mean_motion": 14.82842338,
        "meta_eccentricity": 0.0038022,
        "meta_inclination": 97.6394,
        "meta_ra_of_asc_node": 346.1989,
        "meta_arg_of_pericenter": 51.114,
        "meta_mean_anomaly": 309.3455,
        "meta_ephemeris_type": 0,
        "meta_classification_type": "U",
        "meta_norad_cat_id": 33321,
        "meta_element_set_no": 999,
        "meta_rev_at_epoch": 93193,
        "meta_bstar": 0.0001914,
        "meta_mean_motion_dot": 1.517e-05,
        "meta_mean_motion_ddot": 0,
        "tle_line1": "1 33321U 08041B   25354.54987013  .00001517  00000+0  19140-3 0  9992",
        "tle_line2": "2 33321  97.6394 346.1989 0038022  51.1140 309.3455 14.82842338931936"
      },
      "geometry": {
        "type": "Point",
        "coordinates": [
          -50.98783308637996,
          77.51959200303216
        ]
      }
    },
    {
      "type": "Feature",
      "properties": {
        "norad_id": 33331,
        "name": "GEOEYE 1",
        "group": "resource",
        "lat": -81.76134172240079,
        "lon": 165.27122832157386,
        "alt_km": 683.4662002181985,
        "timestamp": "2025-12-20T16:47:35.948086+00:00",
        "meta_object_name": "GEOEYE 1",
        "meta_object_id": "2008-042A",
        "meta_epoch": "2025-12-20T12:17:28.273056",
        "meta_mean_motion": 14.64709875,
        "meta_eccentricity": 0.0002821,
        "meta_inclination": 98.1244,
        "meta_ra_of_asc_node": 65.6948,
        "meta_arg_of_pericenter": 250.9086,
        "meta_mean_anomaly": 109.1812,
        "meta_ephemeris_type": 0,
        "meta_classification_type": "U",
        "meta_norad_cat_id": 33331,
        "meta_element_set_no": 999,
        "meta_rev_at_epoch": 92399,
        "meta_bstar": 8.4715e-05,
        "meta_mean_motion_dot": 4.03e-06,
        "meta_mean_motion_ddot": 0,
        "tle_line1": "1 33331U 08042A   25354.51213279  .00000403  00000+0  84715-4 0  9991",
        "tle_line2": "2 33331  98.1244  65.6948 0002821 250.9086 109.1812 14.64709875923999"
      },
      "geometry": {
        "type": "Point",
        "coordinates": [
          165.27122832157386,
          -81.76134172240079
        ]
      }
    },
    {
      "type": "Feature",
      "properties": {
        "norad_id": 33396,
        "name": "THEOS",
        "group": "resource",
        "lat": -69.91348575831226,
        "lon": 76.95879775581932,
        "alt_km": 833.0965041093477,
        "timestamp": "2025-12-20T16:47:35.948096+00:00",
        "meta_object_name": "THEOS",
        "meta_object_id": "2008-049A",
        "meta_epoch": "2025-12-20T12:03:28.553184",
        "meta_mean_motion": 14.20099348,
        "meta_eccentricity": 0.0001179,
        "meta_inclination": 98.5863,
        "meta_ra_of_asc_node": 52.3634,
        "meta_arg_of_pericenter": 94.9945,
        "meta_mean_anomaly": 265.1367,
        "meta_ephemeris_type": 0,
        "meta_classification_type": "U",
        "meta_norad_cat_id": 33396,
        "meta_element_set_no": 999,
        "meta_rev_at_epoch": 89260,
        "meta_bstar": 0.0002455,
        "meta_mean_motion_dot": 4.8e-06,
        "meta_mean_motion_ddot": 0,
        "tle_line1": "1 33396U 08049A   25354.50241381  .00000480  00000+0  24550-3 0  9998",
        "tle_line2": "2 33396  98.5863  52.3634 0001179  94.9945 265.1367 14.20099348892601"
      },
      "geometry": {
        "type": "Point",
        "coordinates": [
          76.95879775581932,
          -69.91348575831226
        ]
      }
    }
  ]
}